start=new Date('2023-02-24T00:00:00.000Z').valueOf();
sats=[{"MEAN_ELEMENT_THEORY":"SGP4","MEAN_MOTION_DDOT":"0.0000000000000","MEAN_ANOMALY":"281.2645","PERIAPSIS":"539.061","TIME_SYSTEM":"UTC","RCS_SIZE":"LARGE","APOAPSIS":"540.511","COUNTRY_CODE":"US","OBJECT_TYPE":"PAYLOAD","BSTAR":"-0.00008630300000","FILE":"3829041","MEAN_MOTION":"15.08826645","LAUNCH_DATE":"2022-09-24","RA_OF_ASC_NODE":"267.3816","TLE_LINE1":"1 53894U 22119J   23054.63551590 -.00001660  00000-0 -86303-4 0  9991","REF_FRAME":"TEME","GP_ID":"226574426","INCLINATION":"53.2178","EPOCH":"2023-02-23T15:15:08.573760","DECAY_DATE":null,"MEAN_MOTION_DOT":"-0.00001660","SEMIMAJOR_AXIS":"6917.921","OBJECT_NAME":"STARLINK-5043","NORAD_CAT_ID":"53894","ARG_OF_PERICENTER":"78.8465","ECCENTRICITY":"0.00010480","OBJECT_ID":"2022-119J","REV_AT_EPOCH":"2368","TLE_LINE2":"2 53894  53.2178 267.3816 0001048  78.8465 281.2645 15.08826645 23683","EPHEMERIS_TYPE":"0","CLASSIFICATION_TYPE":"U","CENTER_NAME":"EARTH","SITE":"AFETR","ELEMENT_SET_NO":"999","PERIOD":"95.438"},{"EPHEMERIS_TYPE":"0","TLE_LINE2":"2 53895  53.2165 269.9853 0001200  78.6726 281.4401 15.08833434 24011","CLASSIFICATION_TYPE":"U","OBJECT_ID":"2022-119K","REV_AT_EPOCH":"2401","ECCENTRICITY":"0.00012000","ARG_OF_PERICENTER":"78.6726","PERIOD":"95.438","ELEMENT_SET_NO":"999","SITE":"AFETR","CENTER_NAME":"EARTH","MEAN_MOTION_DOT":"-0.00000744","DECAY_DATE":null,"OBJECT_NAME":"STARLINK-5032","NORAD_CAT_ID":"53895","SEMIMAJOR_AXIS":"6917.900","LAUNCH_DATE":"2022-09-24","FILE":"3828819","MEAN_MOTION":"15.08833434","BSTAR":"-0.00002865300000","OBJECT_TYPE":"PAYLOAD","EPOCH":"2023-02-23T00:40:44.872032","TLE_LINE1":"1 53895U 22119K   23054.02829713 -.00000744  00000-0 -28653-4 0  9996","REF_FRAME":"TEME","GP_ID":"226569666","INCLINATION":"53.2165","RA_OF_ASC_NODE":"269.9853","PERIAPSIS":"538.935","MEAN_ANOMALY":"281.4401","MEAN_ELEMENT_THEORY":"SGP4","MEAN_MOTION_DDOT":"0.0000000000000","COUNTRY_CODE":"US","RCS_SIZE":"LARGE","APOAPSIS":"540.596","TIME_SYSTEM":"UTC"},{"BSTAR":"0.00007039600000","OBJECT_TYPE":"PAYLOAD","FILE":"3829041","MEAN_MOTION":"15.08839488","LAUNCH_DATE":"2022-09-24","RA_OF_ASC_NODE":"266.6692","INCLINATION":"53.2164","GP_ID":"226574425","TLE_LINE1":"1 53896U 22119L   23054.74956672  .00000833  00000-0  70396-4 0  9999","REF_FRAME":"TEME","EPOCH":"2023-02-23T17:59:22.564608","MEAN_MOTION_DDOT":"0.0000000000000","MEAN_ELEMENT_THEORY":"SGP4","MEAN_ANOMALY":"262.5072","PERIAPSIS":"538.985","TIME_SYSTEM":"UTC","RCS_SIZE":"LARGE","APOAPSIS":"540.509","COUNTRY_CODE":"US","ARG_OF_PERICENTER":"97.6046","ECCENTRICITY":"0.00011010","OBJECT_ID":"2022-119L","REV_AT_EPOCH":"2370","TLE_LINE2":"2 53896  53.2164 266.6692 0001101  97.6046 262.5072 15.08839488 23706","EPHEMERIS_TYPE":"0","CLASSIFICATION_TYPE":"U","CENTER_NAME":"EARTH","ELEMENT_SET_NO":"999","SITE":"AFETR","PERIOD":"95.438","DECAY_DATE":null,"MEAN_MOTION_DOT":"0.00000833","SEMIMAJOR_AXIS":"6917.882","NORAD_CAT_ID":"53896","OBJECT_NAME":"STARLINK-5037"},{"ARG_OF_PERICENTER":"91.0660","ECCENTRICITY":"0.00009450","OBJECT_ID":"2022-119M","REV_AT_EPOCH":"2409","CLASSIFICATION_TYPE":"U","TLE_LINE2":"2 53897  53.2166 267.6536 0000945  91.0660 269.0440 15.08838866 24095","EPHEMERIS_TYPE":"0","CENTER_NAME":"EARTH","ELEMENT_SET_NO":"999","SITE":"AFETR","PERIOD":"95.438","DECAY_DATE":null,"MEAN_MOTION_DOT":"0.00001089","SEMIMAJOR_AXIS":"6917.884","NORAD_CAT_ID":"53897","OBJECT_NAME":"STARLINK-5035","OBJECT_TYPE":"PAYLOAD","BSTAR":"0.00008651000000","FILE":"3828819","MEAN_MOTION":"15.08838866","LAUNCH_DATE":"2022-09-24","RA_OF_ASC_NODE":"267.6536","INCLINATION":"53.2166","GP_ID":"226571165","TLE_LINE1":"1 53897U 22119M   23054.56558767  .00001089  00000-0  86510-4 0  9992","REF_FRAME":"TEME","EPOCH":"2023-02-23T13:34:26.774688","MEAN_MOTION_DDOT":"0.0000000000000","MEAN_ELEMENT_THEORY":"SGP4","MEAN_ANOMALY":"269.0440","PERIAPSIS":"539.095","TIME_SYSTEM":"UTC","RCS_SIZE":"LARGE","APOAPSIS":"540.403","COUNTRY_CODE":"US"},{"PERIOD":"95.438","CENTER_NAME":"EARTH","ELEMENT_SET_NO":"999","SITE":"AFETR","REV_AT_EPOCH":"2399","OBJECT_ID":"2022-119N","TLE_LINE2":"2 53898  53.2167 270.4676 0001455  79.2154 280.9002 15.08828810 23999","EPHEMERIS_TYPE":"0","CLASSIFICATION_TYPE":"U","ARG_OF_PERICENTER":"79.2154","ECCENTRICITY":"0.00014550","OBJECT_NAME":"STARLINK-5044","NORAD_CAT_ID":"53898","SEMIMAJOR_AXIS":"6917.915","MEAN_MOTION_DOT":"-0.00000787","DECAY_DATE":null,"REF_FRAME":"TEME","TLE_LINE1":"1 53898U 22119N   23053.87739851 -.00000787  00000-0 -31398-4 0  9991","INCLINATION":"53.2167","GP_ID":"226476847","EPOCH":"2023-02-22T21:03:27.231264","RA_OF_ASC_NODE":"270.4676","LAUNCH_DATE":"2022-09-24","OBJECT_TYPE":"PAYLOAD","BSTAR":"-0.00003139800000","MEAN_MOTION":"15.08828810","FILE":"3825529","COUNTRY_CODE":"US","TIME_SYSTEM":"UTC","RCS_SIZE":"LARGE","APOAPSIS":"540.786","PERIAPSIS":"538.773","MEAN_ELEMENT_THEORY":"SGP4","MEAN_MOTION_DDOT":"0.0000000000000","MEAN_ANOMALY":"280.9002"},{"RA_OF_ASC_NODE":"267.2174","INCLINATION":"53.2159","GP_ID":"226570166","TLE_LINE1":"1 53899U 22119P   23054.60972036  .00006106  00000-0  40142-3 0  9993","REF_FRAME":"TEME","EPOCH":"2023-02-23T14:37:59.839104","OBJECT_TYPE":"PAYLOAD","BSTAR":"0.00040142000000","MEAN_MOTION":"15.08840316","FILE":"3828819","LAUNCH_DATE":"2022-09-24","TIME_SYSTEM":"UTC","RCS_SIZE":"LARGE","APOAPSIS":"540.660","COUNTRY_CODE":"US","MEAN_MOTION_DDOT":"0.0000000000000","MEAN_ELEMENT_THEORY":"SGP4","MEAN_ANOMALY":"269.3473","PERIAPSIS":"538.828","CENTER_NAME":"EARTH","SITE":"AFETR","ELEMENT_SET_NO":"999","PERIOD":"95.438","ARG_OF_PERICENTER":"90.7671","ECCENTRICITY":"0.00013240","REV_AT_EPOCH":"2410","OBJECT_ID":"2022-119P","CLASSIFICATION_TYPE":"U","TLE_LINE2":"2 53899  53.2159 267.2174 0001324  90.7671 269.3473 15.08840316 24107","EPHEMERIS_TYPE":"0","SEMIMAJOR_AXIS":"6917.879","NORAD_CAT_ID":"53899","OBJECT_NAME":"STARLINK-5042","DECAY_DATE":null,"MEAN_MOTION_DOT":"0.00006106"},{"PERIAPSIS":"538.738","MEAN_ANOMALY":"281.1071","MEAN_MOTION_DDOT":"0.0000000000000","MEAN_ELEMENT_THEORY":"SGP4","COUNTRY_CODE":"US","RCS_SIZE":"LARGE","APOAPSIS":"540.686","TIME_SYSTEM":"UTC","LAUNCH_DATE":"2022-09-24","FILE":"3829039","MEAN_MOTION":"15.08850811","OBJECT_TYPE":"PAYLOAD","BSTAR":"0.00037377000000","EPOCH":"2023-02-23T20:43:37.851456","INCLINATION":"53.2164","GP_ID":"226574638","TLE_LINE1":"1 53900U 22119Q   23054.86363254  .00005667  00000-0  37377-3 0  9997","REF_FRAME":"TEME","RA_OF_ASC_NODE":"265.9610","MEAN_MOTION_DOT":"0.00005667","DECAY_DATE":null,"NORAD_CAT_ID":"53900","OBJECT_NAME":"STARLINK-5045","SEMIMAJOR_AXIS":"6917.847","EPHEMERIS_TYPE":"0","TLE_LINE2":"2 53900  53.2164 265.9610 0001408  79.0079 281.1071 15.08850811 23725","CLASSIFICATION_TYPE":"U","REV_AT_EPOCH":"2372","OBJECT_ID":"2022-119Q","ECCENTRICITY":"0.00014080","ARG_OF_PERICENTER":"79.0079","PERIOD":"95.437","ELEMENT_SET_NO":"999","SITE":"AFETR","CENTER_NAME":"EARTH"},{"TLE_LINE1":"1 53901U 22119R   23054.74587847  .00000647  00000-0  58718-4 0  9997","REF_FRAME":"TEME","INCLINATION":"53.2147","GP_ID":"226574439","EPOCH":"2023-02-23T17:54:03.899808","RA_OF_ASC_NODE":"266.6507","LAUNCH_DATE":"2022-09-24","BSTAR":"0.00005871800000","OBJECT_TYPE":"PAYLOAD","MEAN_MOTION":"15.08839860","FILE":"3829039","COUNTRY_CODE":"US","TIME_SYSTEM":"UTC","APOAPSIS":"540.483","RCS_SIZE":"LARGE","PERIAPSIS":"539.008","MEAN_ELEMENT_THEORY":"SGP4","MEAN_MOTION_DDOT":"0.0000000000000","MEAN_ANOMALY":"269.1496","PERIOD":"95.438","CENTER_NAME":"EARTH","ELEMENT_SET_NO":"999","SITE":"AFETR","OBJECT_ID":"2022-119R","REV_AT_EPOCH":"2370","CLASSIFICATION_TYPE":"U","TLE_LINE2":"2 53901  53.2147 266.6507 0001066  90.9618 269.1496 15.08839860 23707","EPHEMERIS_TYPE":"0","ARG_OF_PERICENTER":"90.9618","ECCENTRICITY":"0.00010660","OBJECT_NAME":"STARLINK-5024","NORAD_CAT_ID":"53901","SEMIMAJOR_AXIS":"6917.881","MEAN_MOTION_DOT":"0.00000647","DECAY_DATE":null},{"SITE":"AFETR","ELEMENT_SET_NO":"999","CENTER_NAME":"EARTH","PERIOD":"92.169","ECCENTRICITY":"0.00010570","ARG_OF_PERICENTER":"84.1699","EPHEMERIS_TYPE":"0","TLE_LINE2":"2 53902  53.2122 222.5466 0001057  84.1699  43.1928 15.62341987  1300","CLASSIFICATION_TYPE":"U","OBJECT_ID":"2022-119S","REV_AT_EPOCH":"130","SEMIMAJOR_AXIS":"6759.031","OBJECT_NAME":"STARLINK-5021","NORAD_CAT_ID":"53902","DECAY_DATE":null,"MEAN_MOTION_DOT":"-0.00944843","RA_OF_ASC_NODE":"222.5466","EPOCH":"2023-02-23T14:00:01.000224","REF_FRAME":"TEME","TLE_LINE1":"1 53902U 22119S   23054.58334491 -.00944843  00000-0 -11565-1 0  9998","INCLINATION":"53.2122","GP_ID":"226570919","FILE":"3828819","MEAN_MOTION":"15.62341987","OBJECT_TYPE":"PAYLOAD","BSTAR":"-0.01156500000000","LAUNCH_DATE":"2022-09-24","RCS_SIZE":"LARGE","APOAPSIS":"381.610","TIME_SYSTEM":"UTC","COUNTRY_CODE":"US","MEAN_ANOMALY":"43.1928","MEAN_ELEMENT_THEORY":"SGP4","MEAN_MOTION_DDOT":"0.0000000000000","PERIAPSIS":"380.182"},{"ARG_OF_PERICENTER":"86.3264","ECCENTRICITY":"0.00011390","REV_AT_EPOCH":"2370","OBJECT_ID":"2022-119T","EPHEMERIS_TYPE":"0","TLE_LINE2":"2 53903  53.2150 266.5822 0001139  86.3264 273.7858 15.08842022 23706","CLASSIFICATION_TYPE":"U","CENTER_NAME":"EARTH","ELEMENT_SET_NO":"999","SITE":"AFETR","PERIOD":"95.437","DECAY_DATE":null,"MEAN_MOTION_DOT":"0.00000180","SEMIMAJOR_AXIS":"6917.874","NORAD_CAT_ID":"53903","OBJECT_NAME":"STARLINK-5022","OBJECT_TYPE":"PAYLOAD","BSTAR":"0.00002939500000","MEAN_MOTION":"15.08842022","FILE":"3829042","LAUNCH_DATE":"2022-09-24","RA_OF_ASC_NODE":"266.5822","GP_ID":"226574649","INCLINATION":"53.2150","TLE_LINE1":"1 53903U 22119T   23054.73482349  .00000180  00000-0  29395-4 0  9990","REF_FRAME":"TEME","EPOCH":"2023-02-23T17:38:08.749536","MEAN_MOTION_DDOT":"0.0000000000000","MEAN_ELEMENT_THEORY":"SGP4","MEAN_ANOMALY":"273.7858","PERIAPSIS":"538.951","TIME_SYSTEM":"UTC","RCS_SIZE":"LARGE","APOAPSIS":"540.527","COUNTRY_CODE":"US"}];
